SINOD-D 3               
1 40977U 15058P   26068.81223977  .00006149  00000+0  52531-3 0  9995
2 40977  64.7724 225.9436 0118521  98.0775 263.3804 14.93212807 99915
STARLINK-1578           
1 46082U 20055BH  26068.48101883  .00001259  00000+0  10340-3 0  9994
2 46082  53.0557  97.5557 0001395  88.2015 271.9133 15.06408841309271
